[{"OBJECT_NAME":"STARLINK-3176","OBJECT_ID":"2022-005C","EPOCH":"2026-03-09T21:22:11.353152","MEAN_MOTION":15.08836453,"ECCENTRICITY":0.00014799,"INCLINATION":53.2167,"RA_OF_ASC_NODE":288.2223,"ARG_OF_PERICENTER":94.9198,"MEAN_ANOMALY":265.1963,"EPHEMERIS_TYPE":0,"CLASSIFICATION_TYPE":"U","NORAD_CAT_ID":51106,"ELEMENT_SET_NO":999,"REV_AT_EPOCH":22890,"BSTAR":-7.740474e-6,"MEAN_MOTION_DOT":-4.11e-6,"MEAN_MOTION_DDOT":0},{"OBJECT_NAME":"OBJECT T","OBJECT_ID":"2018-099T","EPOCH":"2026-03-09T14:32:29.418720","MEAN_MOTION":15.09436097,"ECCENTRICITY":0.0004517,"INCLINATION":97.4347,"RA_OF_ASC_NODE":115.9313,"ARG_OF_PERICENTER":320.9739,"MEAN_ANOMALY":39.1164,"EPHEMERIS_TYPE":0,"CLASSIFICATION_TYPE":"U","NORAD_CAT_ID":43775,"ELEMENT_SET_NO":999,"REV_AT_EPOCH":39729,"BSTAR":0.00032877,"MEAN_MOTION_DOT":5.2e-5,"MEAN_MOTION_DDOT":0}]
